0 FENGYUN 1C DEB
1 33680U 99025DFR 13281.45930870  .00004555  00000-0  12853-2 0  3743
2 33680 099.4425 170.6892 0114992 124.7873 236.4095 14.42449654334233
0 FENGYUN 1C DEB
1 33680U 99025DFR 13282.49979759  .00004564  00000-0  12875-2 0  3752
2 33680 099.4423 171.8398 0115166 121.7382 239.5055 14.42459212334388
0 FENGYUN 1C DEB
1 33680U 99025DFR 13285.89865074  .00005513  00000-0  15515-2 0  3774
2 33680 099.4426 175.5999 0114506 111.0207 250.3064 14.42501040334876
0 FENGYUN 1C DEB
1 33680U 99025DFR 13286.93910091  .00005551  00000-0  15616-2 0  3785
2 33680 099.4419 176.7520 0114548 107.8121 253.5586 14.42513068335020
0 FENGYUN 1C DEB
1 33680U 99025DFR 13287.49400193  .00005654  00000-0  15881-2 0  3793
2 33680 099.4430 177.3676 0115418 106.5883 254.8182 14.42520521335107
0 FENGYUN 1C DEB
1 33680U 99025DFR 13289.50549037  .00006216  00000-0  17446-2 0  3804
2 33680 099.4417 179.5892 0114892 100.9747 260.4990 14.42549589335394
0 FENGYUN 1C DEB
1 33680U 99025DFR 13290.47653531  .00006980  00000-0  19405-2 0  3824
2 33680 099.4401 180.6767 0115866 098.0732 263.4120 14.42565456335539
0 FENGYUN 1C DEB
1 33680U 99025DFR 13291.51692075  .00006557  00000-0  18393-2 0  3810
2 33680 099.4409 181.8097 0114408 095.3775 266.0706 14.42578939335689
0 FENGYUN 1C DEB
1 33680U 99025DFR 13293.45896085  .00006869  00000-0  19253-2 0  3825
2 33680 099.4437 183.9636 0114318 090.0510 271.4207 14.42608352335961
0 FENGYUN 1C DEB
1 33680U 99025DFR 13294.49931549  .00007103  00000-0  19854-2 0  3835
2 33680 099.4424 185.1176 0115818 086.2284 275.1792 14.42624288336115
